{
    "links": {
        "self": "http://www.neowsapp.com/rest/v1/neo/3483293?api_key=iIulBulltgU6a56xZRHN4H3l9WmuAYTsLGpBGhQ2"
    },
    "id": "3483293",
    "neo_reference_id": "3483293",
    "name": "(2009 XA2)",
    "designation": "2009 XA2",
    "nasa_jpl_url": "http://ssd.jpl.nasa.gov/sbdb.cgi?sstr=3483293",
    "absolute_magnitude_h": 23.2,
    "estimated_diameter": {
        "kilometers": {
            "estimated_diameter_min": 0.0608912622,
            "estimated_diameter_max": 0.1361570015
        },
        "meters": {
            "estimated_diameter_min": 60.8912622106,
            "estimated_diameter_max": 136.1570015386
        },
        "miles": {
            "estimated_diameter_min": 0.0378360645,
            "estimated_diameter_max": 0.0846040122
        },
        "feet": {
            "estimated_diameter_min": 199.7744887109,
            "estimated_diameter_max": 446.7093369279
        }
    },
    "is_potentially_hazardous_asteroid": false,
    "close_approach_data": [
        {
            "close_approach_date": "2009-12-02",
            "close_approach_date_full": "2009-Dec-02 17:25",
            "epoch_date_close_approach": 1259774700000,
            "relative_velocity": {
                "kilometers_per_second": "18.5108905325",
                "kilometers_per_hour": "66639.2059170922",
                "miles_per_hour": "41407.0110322065"
            },
            "miss_distance": {
                "astronomical": "0.0800383145",
                "lunar": "31.1349043405",
                "kilometers": "11973561.367590115",
                "miles": "7440026.035228987"
            },
            "orbiting_body": "Earth"
        }
    ],
    "orbital_data": {
        "orbit_id": "8",
        "orbit_determination_date": "2017-04-06 08:58:48",
        "first_observation_date": "2009-12-11",
        "last_observation_date": "2009-12-19",
        "data_arc_in_days": 8,
        "observations_used": 26,
        "orbit_uncertainty": "9",
        "minimum_orbit_intersection": ".0791928",
        "jupiter_tisserand_invariant": "4.180",
        "epoch_osculation": "2455178.5",
        "eccentricity": ".4585192097122904",
        "semi_major_axis": "1.573701620361603",
        "inclination": "26.6382225495886",
        "ascending_node_longitude": "255.8862045189378",
        "orbital_period": "721.0776170648139",
        "perihelion_distance": ".8521291970704499",
        "perihelion_argument": "107.7309438399052",
        "aphelion_distance": "2.295274043652755",
        "perihelion_time": "2455118.145342391536",
        "mean_anomaly": "30.13223018555303",
        "mean_motion": ".4992527731832805",
        "equinox": "J2000",
        "orbit_class": {
            "orbit_class_type": "APO",
            "orbit_class_description": "Near-Earth asteroid orbits which cross the Earth’s orbit similar to that of 1862 Apollo",
            "orbit_class_range": "a (semi-major axis) > 1.0 AU; q (perihelion) < 1.017 AU"
        }
    },
    "is_sentry_object": false
}